STARLINK-36715          
1 67716U 26025Z   26051.16670139 -.01498790  64614-3 -42577-2 0  9990
2 67716  97.2713 161.8747 0001419  72.5903 199.3686 15.93418975  3099
STARLINK-36385          
1 67717U 26025AA  26051.16670139 -.01539467  67280-3 -45848-2 0  9994
2 67717  97.2714 161.8650 0001600  65.0542 183.9690 15.92513817  3096
CZ-2F DEB               
1 67718U 26024E   26051.14140447  .00200239  00000+0  39459-2 0  9999
2 67718  50.3132 104.4717 0256766 210.9958 147.5630 15.17840669  1964
CZ-2F DEB               
1 67719U 26024F   26051.17173509  .00148010  00000+0  37620-2 0  9994
2 67719  49.7902 105.8824 0330539 201.2835 157.4084 14.98157325  1617
CZ-2F DEB               
1 67720U 26024G   26051.19495351  .00149165  00000+0  38914-2 0  9999
2 67720  49.8291 106.0339 0341218 197.8808 160.9882 14.95494879  1936
2026-026N               
1 67733U 26026N   26050.66668981 -.01616295  78657-3 -34510-2 0  9998
2 67733  97.2739 104.3113 0001254  83.8379 297.8192 15.98739130  2419
2026-026P               
1 67734U 26026P   26050.66668981 -.01612323  78461-3 -34065-2 0  9995
2 67734  97.2738 104.3125 0001248  89.4627 295.3181 15.98927592  2415
2026-026Q               
1 67735U 26026Q   26050.66668981 -.01591595  77033-3 -32673-2 0  9990
2 67735  97.2734 104.3160 0001288  80.4194 312.5836 15.99439141  2558
2026-026R               
1 67736U 26026R   26050.66668981 -.01600782  77646-3 -33325-2 0  9995
2 67736  97.2733 104.3138 0001305  80.5214 308.5035 15.99190319  2419
2026-026S               
1 67737U 26026S   26050.66668981 -.01581379  76249-3 -32178-2 0  9999
2 67737  97.2730 104.3169 0001272  74.7007 320.9843 15.99595065  2411
2026-026T               
1 67738U 26026T   26050.66668981 -.01577144  76046-3 -31719-2 0  9990
2 67738  97.2729 104.3184 0001340  73.1637 325.8563 15.99801899  2413
2026-026U               
1 67739U 26026U   26050.66668981 -.01536166  73406-3 -28851-2 0  9990
2 67739  97.2717 104.3263 0001220  75.7674 342.7608 16.01002856  2413
